      2.10          N: GNSS NAV DATA                        RINEX VERSION / TYPE
fic2rin                                 05/03/2019 00:19:55 PGM / RUN BY / DATE
                                                            END OF HEADER
24 19  5  2 14  0  0.0-6.552180275321e-05-4.547473508865e-13 0.000000000000e+00
    1.210000000000e+02 9.865625000000e+01 5.204859660440e-09-2.574626887704e+00
    4.962086677551e-06 8.265761774965e-03 6.228685379028e-06 5.153720378876e+03
    3.960000000000e+05 5.215406417847e-08 6.054091186113e-01-1.564621925354e-07
    9.391328801169e-01 2.480000000000e+02 6.072763945622e-01-8.391063807203e-09
    4.332323315798e-10 1.000000000000e+00 2.051000000000e+03 0.000000000000e+00
    3.400000000000e+00 0.000000000000e+00 2.793967723846e-09 1.210000000000e+02
    3.888000000000e+05 4.000000000000e+00
 4 19  5  2 14  0  0.0 1.561068929732e-04 4.206412995700e-12 0.000000000000e+00
    2.360000000000e+02-7.718750000000e+00 4.381968240852e-09 2.698278396960e+00
   -5.438923835754e-07 4.054333548993e-04 1.208297908306e-05 5.153773365021e+03
    3.960000000000e+05 2.048909664154e-08-3.597355962715e-01-5.587935447693e-09
    9.602162418893e-01 1.506250000000e+02-1.605267564352e+00-7.847826893491e-09
   -9.857553463812e-11 1.000000000000e+00 2.051000000000e+03 0.000000000000e+00
    2.400000000000e+00 6.300000000000e+01-8.847564458847e-09 4.920000000000e+02
    3.888300000000e+05 4.000000000000e+00
22 19  5  2 13 59 44.0-6.940150633454e-04-6.593836587854e-12 0.000000000000e+00
    4.000000000000e+00-3.743750000000e+01 5.647735250843e-09-1.460546497418e+00
   -1.708045601845e-06 7.260713144206e-03 4.202127456665e-06 5.153808719635e+03
    3.959840000000e+05-5.774199962616e-08-1.509347838259e+00 1.620501279831e-07
    9.267954453447e-01 2.816562500000e+02-1.359605370850e+00-8.808581198478e-09
   -1.071473202588e-10 1.000000000000e+00 2.051000000000e+03 0.000000000000e+00
    2.400000000000e+00 0.000000000000e+00-1.816079020500e-08 4.000000000000e+00
    3.938700000000e+05 4.000000000000e+00
24 19  5  2 13 59 44.0-6.552599370480e-05-4.547473508865e-13 0.000000000000e+00
    3.800000000000e+01 9.865625000000e+01 5.204859660440e-09-2.576958659163e+00
    4.962086677551e-06 8.265762007795e-03 6.230548024178e-06 5.153720376968e+03
    3.959840000000e+05 5.215406417847e-08 6.054092546627e-01-1.564621925354e-07
    9.391328786540e-01 2.480000000000e+02 6.072745088608e-01-8.391063807203e-09
    4.332323315798e-10 1.000000000000e+00 2.051000000000e+03 0.000000000000e+00
    2.400000000000e+00 0.000000000000e+00 2.793967723846e-09 3.800000000000e+01
    3.954900000000e+05 4.000000000000e+00
22 19  5  2 15 59 44.0-6.940620951355e-04-6.593836587854e-12 0.000000000000e+00
    2.600000000000e+01-4.046875000000e+01 5.611305161955e-09-4.104983693962e-01
   -2.043321728706e-06 7.260630489327e-03 4.354864358902e-06 5.153807971954e+03
    4.031840000000e+05-1.937150955200e-07-1.509411124095e+00 8.195638656616e-08
    9.267946027038e-01 2.792500000000e+02-1.359546766351e+00-8.800366570592e-09
   -1.657211886670e-10 1.000000000000e+00 2.051000000000e+03 0.000000000000e+00
    2.400000000000e+00 0.000000000000e+00-1.816079020500e-08 2.600000000000e+01
    3.960000000000e+05 4.000000000000e+00
24 19  5  2 15 59 44.0-6.552971899509e-05-4.547473508865e-13 0.000000000000e+00
    6.400000000000e+01 9.471875000000e+01 5.169143887020e-09-1.526703616008e+00
    4.854053258896e-06 8.265533484519e-03 6.403774023056e-06 5.153721925735e+03
    4.031840000000e+05 1.378357410431e-07 6.053485201557e-01-4.842877388000e-08
    9.391363194373e-01 2.428750000000e+02 6.071765928280e-01-8.416779164065e-09
    4.871631494435e-10 1.000000000000e+00 2.051000000000e+03 0.000000000000e+00
    2.400000000000e+00 0.000000000000e+00 2.793967723846e-09 6.400000000000e+01
    3.960000000000e+05 4.000000000000e+00
 2 19  5  2 16  0  0.0-2.034311182797e-04-9.208633855451e-12 0.000000000000e+00
    1.900000000000e+01 5.953125000000e+01 4.660908431259e-09-1.506771813608e+00
    3.349035978317e-06 1.888318359852e-02 7.543712854385e-06 5.153699905396e+03
    4.032000000000e+05 2.272427082062e-07-2.548029939835e+00 4.395842552185e-07
    9.545310628159e-01 2.327812500000e+02-1.744481550784e+00-8.145696443810e-09
    3.796586714504e-10 1.000000000000e+00 2.051000000000e+03 0.000000000000e+00
    2.400000000000e+00 0.000000000000e+00-2.048909664154e-08 1.900000000000e+01
    3.960000000000e+05 4.000000000000e+00
 1 19  5  2 16  0  0.0-7.141381502151e-06-8.640199666843e-12 0.000000000000e+00
    1.230000000000e+02 5.215625000000e+01 4.196603376804e-09-1.789014727187e+00
    2.700835466385e-06 8.742657257244e-03 7.295981049538e-06 5.153650102615e+03
    4.032000000000e+05 8.195638656616e-08-2.479825009500e+00-1.862645149231e-07
    9.753818791304e-01 2.470312500000e+02 6.939934720937e-01-7.826754587173e-09
    5.000208278745e-10 1.000000000000e+00 2.051000000000e+03 0.000000000000e+00
    2.400000000000e+00 0.000000000000e+00 5.587935447693e-09 1.230000000000e+02
    3.960000000000e+05 4.000000000000e+00
 5 19  5  2 16  0  0.0 1.020729541779e-06-1.136868377216e-13 0.000000000000e+00
    2.000000000000e+01-4.246875000000e+01 5.090212027763e-09 1.172782163816e+00
   -2.132728695869e-06 5.592736997642e-03 4.354864358902e-06 5.153672988892e+03
    4.032000000000e+05-6.332993507385e-08-1.463744780125e+00-2.048909664154e-08
    9.492089683064e-01 2.917812500000e+02 7.051375153507e-01-8.504639966677e-09
   -2.721541934574e-10 1.000000000000e+00 2.051000000000e+03 0.000000000000e+00
    2.400000000000e+00 0.000000000000e+00-1.117587089539e-08 2.000000000000e+01
    3.960000000000e+05 4.000000000000e+00
 3 19  5  2 16  0  0.0 1.882775686681e-04-2.273736754432e-13 0.000000000000e+00
    1.600000000000e+01-4.715625000000e+01 4.711981987249e-09-2.710124063043e+00
   -2.378597855568e-06 2.107231179252e-03 4.945322871208e-06 5.153791931152e+03
    4.032000000000e+05 3.725290298462e-09-1.437235213816e+00 7.636845111847e-08
    9.623353840572e-01 2.851562500000e+02 5.816040577321e-01-8.214985044244e-09
   -2.210806374674e-10 1.000000000000e+00 2.051000000000e+03 0.000000000000e+00
    2.400000000000e+00 0.000000000000e+00 1.862645149231e-09 1.600000000000e+01
    3.960000000000e+05 4.000000000000e+00
23 19  5  2 16  0  0.0-1.878649927676e-04 1.591615728103e-12 0.000000000000e+00
    1.600000000000e+01-2.125000000000e+00 4.687338103589e-09-1.022614819646e+00
    1.173466444016e-07 1.317025045864e-02 1.207180321217e-05 5.153598854065e+03
    4.032000000000e+05 2.291053533554e-07-4.096478727125e-01 2.328306436539e-07
    9.436229882451e-01 1.339375000000e+02-2.267274187813e+00-8.110694985859e-09
   -1.107188976008e-10 1.000000000000e+00 2.051000000000e+03 0.000000000000e+00
    2.400000000000e+00 0.000000000000e+00-2.048909664154e-08 1.600000000000e+01
    3.960000000000e+05 4.000000000000e+00
21 19  5  2 16  0  0.0-2.007097937167e-04 7.503331289627e-12 0.000000000000e+00
    1.700000000000e+01 6.687500000000e+01 4.655551065246e-09 2.663222807017e+00
    3.406777977943e-06 2.465447515715e-02 6.925314664841e-06 5.153747692108e+03
    4.032000000000e+05 3.017485141754e-07-2.543407915994e+00-1.303851604462e-08
    9.482656480076e-01 2.324062500000e+02-1.446505280957e+00-7.788538709614e-09
    3.021554431299e-10 1.000000000000e+00 2.051000000000e+03 0.000000000000e+00
    2.400000000000e+00 0.000000000000e+00-1.024454832077e-08 1.700000000000e+01
    3.960000000000e+05 4.000000000000e+00
12 19  5  2 16  0  0.0 2.460656687617e-04-3.410605131648e-12 0.000000000000e+00
    1.800000000000e+01-5.871875000000e+01 4.364110354142e-09 3.119532889089e+00
   -3.049150109291e-06 7.659200811759e-03 3.896653652191e-06 5.153654092789e+03
    4.032000000000e+05 4.656612873077e-08 1.770903431248e+00-2.328306436539e-07
    9.827577321471e-01 3.117187500000e+02 1.073459295283e+00-8.085693944465e-09
   -3.607293115380e-10 1.000000000000e+00 2.051000000000e+03 0.000000000000e+00
    2.400000000000e+00 0.000000000000e+00-1.210719347000e-08 1.800000000000e+01
    3.960000000000e+05 4.000000000000e+00
 6 19  5  2 16  0  0.0 2.159536816180e-04-9.777068044059e-12 0.000000000000e+00
    2.000000000000e+01 5.259375000000e+01 4.286607125821e-09-1.610127498170e+00
    2.736225724220e-06 1.590742380358e-03 7.776543498039e-06 5.153570718765e+03
    4.032000000000e+05-3.725290298462e-09-2.488105217992e+00 2.235174179077e-08
    9.750398781418e-01 2.388437500000e+02-1.093329366928e+00-7.988547040764e-09
    4.518045337580e-10 1.000000000000e+00 2.051000000000e+03 0.000000000000e+00
    2.400000000000e+00 0.000000000000e+00 4.190951585770e-09 2.000000000000e+01
    3.960000000000e+05 4.000000000000e+00
 7 19  5  2 16  0  0.0-1.634657382965e-05-7.503331289627e-12 0.000000000000e+00
    5.900000000000e+01 9.218750000000e+01 4.839130140623e-09-2.376083971835e+00
    4.488974809647e-06 1.257616712246e-02 6.498768925667e-06 5.153592670441e+03
    4.032000000000e+05 1.713633537292e-07 6.708691933090e-01-2.104789018631e-07
    9.559359176766e-01 2.518750000000e+02-2.467040581571e+00-8.192126949256e-09
    5.743096365873e-10 1.000000000000e+00 2.051000000000e+03 0.000000000000e+00
    2.400000000000e+00 0.000000000000e+00-1.117587089539e-08 5.900000000000e+01
    3.960000000000e+05 4.000000000000e+00
32 19  5  2 16  0  0.0-1.057051122189e-04 1.728039933369e-11 0.000000000000e+00
    1.800000000000e+01 2.593750000000e+00 4.369467720155e-09 1.018854619865e+00
   -2.607703208923e-08 2.992543741129e-03 1.193210482597e-05 5.153590970993e+03
    4.032000000000e+05-3.911554813385e-08-3.981999916108e-01 2.980232238770e-08
    9.570869196776e-01 1.464375000000e+02-2.519969191746e+00-7.907472235101e-09
   -1.596495071856e-10 1.000000000000e+00 2.051000000000e+03 0.000000000000e+00
    2.400000000000e+00 0.000000000000e+00 4.656612873077e-10 1.800000000000e+01
    3.960000000000e+05 4.000000000000e+00
